[{"OBJECT_NAME":"STARLINK-30106","OBJECT_ID":"2023-056C","EPOCH":"2026-03-09T22:00:01.999584","MEAN_MOTION":15.26749083,"ECCENTRICITY":0.00016875,"INCLINATION":43.003,"RA_OF_ASC_NODE":207.2618,"ARG_OF_PERICENTER":291.4212,"MEAN_ANOMALY":266.2264,"EPHEMERIS_TYPE":0,"CLASSIFICATION_TYPE":"U","NORAD_CAT_ID":56288,"ELEMENT_SET_NO":999,"REV_AT_EPOCH":577,"BSTAR":-0.00051497468,"MEAN_MOTION_DOT":-0.00014051,"MEAN_MOTION_DDOT":0},{"OBJECT_NAME":"KIRARI (OICETS)","OBJECT_ID":"2005-031A","EPOCH":"2026-03-09T15:02:18.043872","MEAN_MOTION":15.22934858,"ECCENTRICITY":0.0019783,"INCLINATION":98.0768,"RA_OF_ASC_NODE":316.1697,"ARG_OF_PERICENTER":5.9068,"MEAN_ANOMALY":354.2396,"EPHEMERIS_TYPE":0,"CLASSIFICATION_TYPE":"U","NORAD_CAT_ID":28809,"ELEMENT_SET_NO":999,"REV_AT_EPOCH":12344,"BSTAR":0.00027776,"MEAN_MOTION_DOT":6.472e-5,"MEAN_MOTION_DDOT":0}]
